{
  "type": "FeatureCollection",
  "features": [
    {
      "type": "Feature",
      "properties": {
        "norad_id": 40730,
        "name": "GPS BIIF-10 (PRN 08)",
        "group": "gps-ops",
        "lat": -53.97226712485762,
        "lon": -169.56152534981484,
        "alt_km": 20303.280639538505,
        "timestamp": "2025-12-27T02:10:16.448429+00:00",
        "meta_object_name": "GPS BIIF-10 (PRN 08)",
        "meta_object_id": "2015-033A",
        "meta_epoch": "2025-12-26T05:05:23.462304",
        "meta_mean_motion": 2.00564909,
        "meta_eccentricity": 0.0111756,
        "meta_inclination": 54.1189,
        "meta_ra_of_asc_node": 274.2184,
        "meta_arg_of_pericenter": 27.1685,
        "meta_mean_anomaly": 333.4602,
        "meta_ephemeris_type": 0,
        "meta_classification_type": "U",
        "meta_norad_cat_id": 40730,
        "meta_element_set_no": 999,
        "meta_rev_at_epoch": 7652,
        "meta_bstar": 0,
        "meta_mean_motion_dot": -2e-07,
        "meta_mean_motion_ddot": 0,
        "tle_line1": "1 40730U 15033A   25360.21207711 -.00000020  00000+0  00000+0 0  9994",
        "tle_line2": "2 40730  54.1189 274.2184 0111756  27.1685 333.4602  2.00564909 76528"
      },
      "geometry": {
        "type": "Point",
        "coordinates": [
          -169.56152534981484,
          -53.97226712485762
        ]
      }
    },
    {
      "type": "Feature",
      "properties": {
        "norad_id": 41019,
        "name": "GPS BIIF-11 (PRN 10)",
        "group": "gps-ops",
        "lat": -40.1917569815367,
        "lon": -109.03197738228448,
        "alt_km": 19891.114659979437,
        "timestamp": "2025-12-27T02:10:16.448443+00:00",
        "meta_object_name": "GPS BIIF-11 (PRN 10)",
        "meta_object_id": "2015-062A",
        "meta_epoch": "2025-12-26T06:30:53.631648",
        "meta_mean_motion": 2.00567029,
        "meta_eccentricity": 0.0111129,
        "meta_inclination": 56.842,
        "meta_ra_of_asc_node": 37.479,
        "meta_arg_of_pericenter": 230.2895,
        "meta_mean_anomaly": 128.7854,
        "meta_ephemeris_type": 0,
        "meta_classification_type": "U",
        "meta_norad_cat_id": 41019,
        "meta_element_set_no": 999,
        "meta_rev_at_epoch": 7436,
        "meta_bstar": 0,
        "meta_mean_motion_dot": -4.9e-07,
        "meta_mean_motion_ddot": 0,
        "tle_line1": "1 41019U 15062A   25360.27145407 -.00000049  00000+0  00000+0 0  9997",
        "tle_line2": "2 41019  56.8420  37.4790 0111129 230.2895 128.7854  2.00567029 74362"
      },
      "geometry": {
        "type": "Point",
        "coordinates": [
          -109.03197738228448,
          -40.1917569815367
        ]
      }
    },
    {
      "type": "Feature",
      "properties": {
        "norad_id": 41328,
        "name": "GPS BIIF-12 (PRN 32)",
        "group": "gps-ops",
        "lat": 8.553694183577198,
        "lon": -89.6576017723577,
        "alt_km": 20112.95962952242,
        "timestamp": "2025-12-27T02:10:16.448455+00:00",
        "meta_object_name": "GPS BIIF-12 (PRN 32)",
        "meta_object_id": "2016-007A",
        "meta_epoch": "2025-12-25T20:32:16.174464",
        "meta_mean_motion": 2.00559967,
        "meta_eccentricity": 0.00928247,
        "meta_inclination": 55.4133,
        "meta_ra_of_asc_node": 96.3364,
        "meta_arg_of_pericenter": 243.9276,
        "meta_mean_anomaly": 115.1304,
        "meta_ephemeris_type": 0,
        "meta_classification_type": "U",
        "meta_norad_cat_id": 41328,
        "meta_element_set_no": 999,
        "meta_rev_at_epoch": 7236,
        "meta_bstar": 0,
        "meta_mean_motion_dot": 1.1e-07,
        "meta_mean_motion_ddot": 0,
        "tle_line1": "1 41328U 16007A   25359.85574276  .00000011  00000+0  00000+0 0  9990",
        "tle_line2": "2 41328  55.4133  96.3364 0092824 243.9276 115.1304  2.00559967 72366"
      },
      "geometry": {
        "type": "Point",
        "coordinates": [
          -89.6576017723577,
          8.553694183577198
        ]
      }
    },
    {
      "type": "Feature",
      "properties": {
        "norad_id": 43873,
        "name": "GPS BIII-1  (PRN 04)",
        "group": "gps-ops",
        "lat": 48.153820809989035,
        "lon": 148.87277632536242,
        "alt_km": 20242.799874235425,
        "timestamp": "2025-12-27T02:10:16.448466+00:00",
        "meta_object_name": "GPS BIII-1  (PRN 04)",
        "meta_object_id": "2018-109A",
        "meta_epoch": "2025-12-26T12:23:38.434848",
        "meta_mean_motion": 2.00553927,
        "meta_eccentricity": 0.0037609,
        "meta_inclination": 55.5742,
        "meta_ra_of_asc_node": 99.0034,
        "meta_arg_of_pericenter": 195.6344,
        "meta_mean_anomaly": 174.7569,
        "meta_ephemeris_type": 0,
        "meta_classification_type": "U",
        "meta_norad_cat_id": 43873,
        "meta_element_set_no": 999,
        "meta_rev_at_epoch": 5161,
        "meta_bstar": 0,
        "meta_mean_motion_dot": 1.3e-07,
        "meta_mean_motion_ddot": 0,
        "tle_line1": "1 43873U 18109A   25360.51641707  .00000013  00000+0  00000+0 0  9993",
        "tle_line2": "2 43873  55.5742  99.0034 0037609 195.6344 174.7569  2.00553927 51612"
      },
      "geometry": {
        "type": "Point",
        "coordinates": [
          148.87277632536242,
          48.153820809989035
        ]
      }
    },
    {
      "type": "Feature",
      "properties": {
        "norad_id": 44506,
        "name": "GPS BIII-2  (PRN 18)",
        "group": "gps-ops",
        "lat": -29.826968800643655,
        "lon": -45.04392122342162,
        "alt_km": 20271.577284842224,
        "timestamp": "2025-12-27T02:10:16.448479+00:00",
        "meta_object_name": "GPS BIII-2  (PRN 18)",
        "meta_object_id": "2019-056A",
        "meta_epoch": "2025-12-26T20:32:24.377280",
        "meta_mean_motion": 2.0056645,
        "meta_eccentricity": 0.0057778,
        "meta_inclination": 55.7161,
        "meta_ra_of_asc_node": 337.993,
        "meta_arg_of_pericenter": 198.6833,
        "meta_mean_anomaly": 314.3411,
        "meta_ephemeris_type": 0,
        "meta_classification_type": "U",
        "meta_norad_cat_id": 44506,
        "meta_element_set_no": 999,
        "meta_rev_at_epoch": 4661,
        "meta_bstar": 0,
        "meta_mean_motion_dot": -5.9e-07,
        "meta_mean_motion_ddot": 0,
        "tle_line1": "1 44506U 19056A   25360.85583770 -.00000059  00000+0  00000+0 0  9992",
        "tle_line2": "2 44506  55.7161 337.9930 0057778 198.6833 314.3411  2.00566450 46614"
      },
      "geometry": {
        "type": "Point",
        "coordinates": [
          -45.04392122342162,
          -29.826968800643655
        ]
      }
    },
    {
      "type": "Feature",
      "properties": {
        "norad_id": 45854,
        "name": "GPS BIII-3  (PRN 23)",
        "group": "gps-ops",
        "lat": -56.41938296787705,
        "lon": -60.08048109415865,
        "alt_km": 20114.19263795933,
        "timestamp": "2025-12-27T02:10:16.448490+00:00",
        "meta_object_name": "GPS BIII-3  (PRN 23)",
        "meta_object_id": "2020-041A",
        "meta_epoch": "2025-12-26T05:40:05.983104",
        "meta_mean_motion": 2.00561528,
        "meta_eccentricity": 0.0060682,
        "meta_inclination": 56.556,
        "meta_ra_of_asc_node": 35.6606,
        "meta_arg_of_pericenter": 203.8008,
        "meta_mean_anomaly": 165.623,
        "meta_ephemeris_type": 0,
        "meta_classification_type": "U",
        "meta_norad_cat_id": 45854,
        "meta_element_set_no": 999,
        "meta_rev_at_epoch": 4057,
        "meta_bstar": 0,
        "meta_mean_motion_dot": -5e-07,
        "meta_mean_motion_ddot": 0,
        "tle_line1": "1 45854U 20041A   25360.23618036 -.00000050  00000+0  00000+0 0  9992",
        "tle_line2": "2 45854  56.5560  35.6606 0060682 203.8008 165.6230  2.00561528 40572"
      },
      "geometry": {
        "type": "Point",
        "coordinates": [
          -60.08048109415865,
          -56.41938296787705
        ]
      }
    },
    {
      "type": "Feature",
      "properties": {
        "norad_id": 46826,
        "name": "GPS BIII-4  (PRN 14)",
        "group": "gps-ops",
        "lat": -43.32992660736603,
        "lon": 81.03728589363541,
        "alt_km": 20044.157441593,
        "timestamp": "2025-12-27T02:10:16.448501+00:00",
        "meta_object_name": "GPS BIII-4  (PRN 14)",
        "meta_object_id": "2020-078A",
        "meta_epoch": "2025-12-16T01:06:13.902336",
        "meta_mean_motion": 2.00566891,
        "meta_eccentricity": 0.0064754,
        "meta_inclination": 54.0144,
        "meta_ra_of_asc_node": 218.2068,
        "meta_arg_of_pericenter": 203.3802,
        "meta_mean_anomaly": 339.3962,
        "meta_ephemeris_type": 0,
        "meta_classification_type": "U",
        "meta_norad_cat_id": 46826,
        "meta_element_set_no": 999,
        "meta_rev_at_epoch": 3783,
        "meta_bstar": 0,
        "meta_mean_motion_dot": 6.7e-07,
        "meta_mean_motion_ddot": 0,
        "tle_line1": "1 46826U 20078A   25350.04599424  .00000067  00000+0  00000+0 0  9996",
        "tle_line2": "2 46826  54.0144 218.2068 0064754 203.3802 339.3962  2.00566891 37830"
      },
      "geometry": {
        "type": "Point",
        "coordinates": [
          81.03728589363541,
          -43.32992660736603
        ]
      }
    }
  ]
}